NORAD_CAT_ID,OBJECT_NAME,OBJECT_TYPE,EPOCH,MEAN_MOTION,ECCENTRICITY,INCLINATION,RA_OF_ASC_NODE,ARG_OF_PERICENTER,MEAN_ANOMALY,BSTAR,MEAN_MOTION_DOT,MEAN_MOTION_DDOT,TLE_LINE0,TLE_LINE1,TLE_LINE2,SEMIMAJOR_AXIS,PERIOD,APOGEE,PERIGEE,DECAYED
51809.0,STARLINK-3607,PAYLOAD,2024-02-23 22:00:01,15.08816205,0.0001415,53.2159,82.496,89.9832,29.3468,0.0033269,0.00053024,0.0,0 STARLINK-3607,1 51809U 22017AT  24054.91668981  .00053024  00000-0  33269-2 0  9997,2 51809  53.2159  82.4960 0001415  89.9832  29.3468 15.08816205  5877,6917.953,95.439,540.797,538.839,0.0
51809.0,STARLINK-3607,PAYLOAD,2024-02-24 06:00:00,15.08887754,0.0001449,53.216,81.0005,88.6663,42.1875,-0.0051639,-0.00081647,0.0,0 STARLINK-3607,1 51809U 22017AT  24055.25001157 -.00081647  00000-0 -51639-2 0  9996,2 51809  53.2160  81.0005 0001449  88.6663  42.1875 15.08887754111677,6917.734,95.435,540.602,538.597,0.0
51809.0,STARLINK-3607,PAYLOAD,2024-02-24 14:00:01,15.08810958,0.000131,53.2156,79.5045,84.6684,57.8707,0.0012494,0.00019636,0.0,0 STARLINK-3607,1 51809U 22017AT  24055.58335648  .00019636  00000-0  12494-2 0  9990,2 51809  53.2156  79.5045 0001310  84.6684  57.8707 15.08810958  5721,6917.969,95.439,540.74,538.928,0.0
51809.0,STARLINK-3607,PAYLOAD,2024-02-24 22:00:00,15.08800511,0.0001262,53.2157,78.0065,97.6583,56.3937,0.0033792,0.00053845,0.0,0 STARLINK-3607,1 51809U 22017AT  24055.91667824  .00053845  00000-0  33792-2 0  9995,2 51809  53.2157  78.0065 0001262  97.6583  56.3937 15.08800511111772,6918.001,95.44,540.739,538.993,0.0
51809.0,STARLINK-3607,PAYLOAD,2024-02-25 14:00:01,15.08822479,0.0001288,53.2153,75.0151,83.3261,93.8923,0.00085576,0.00013351,0.0,0 STARLINK-3607,1 51809U 22017AT  24056.58334491  .00013351  00000-0  85576-3 0  9996,2 51809  53.2153  75.0151 0001288  83.3261  93.8923 15.08822479111873,6917.934,95.439,540.69,538.908,0.0
51809.0,STARLINK-3607,PAYLOAD,2024-02-26 00:00:00,15.08823589,0.000135,53.2154,73.1428,96.7221,184.9804,0.0031099,0.00049532,0.0,0 STARLINK-3607,1 51809U 22017AT  24057.00001157  .00049532  00000-0  31099-2 0  9994,2 51809  53.2154  73.1428 0001350  96.7221 184.9804 15.08823589  5824,6917.931,95.439,540.729,538.862,0.0
51809.0,STARLINK-3607,PAYLOAD,2024-02-26 11:28:29,15.08847783,0.0001605,53.2174,70.9991,99.6983,260.419,0.00017447,2.49e-05,0.0,0 STARLINK-3607,1 51809U 22017AT  24057.47811549  .00002490  00000-0  17447-3 0  9993,2 51809  53.2174  70.9991 0001605  99.6983 260.4190 15.08847783112016,6917.857,95.437,540.832,538.611,0.0
51809.0,STARLINK-3607,PAYLOAD,2024-02-27 04:57:44,15.08836512,0.0001934,53.2174,67.7268,112.1669,247.9529,0.00012508,1.703e-05,0.0,0 STARLINK-3607,1 51809U 22017AT  24058.20676320  .00001703  00000-0  12508-3 0  9990,2 51809  53.2174  67.7268 0001934 112.1669 247.9529 15.08836512112120,6917.891,95.438,541.094,538.418,0.0
51809.0,STARLINK-3607,PAYLOAD,2024-02-27 09:43:53,15.08842668,0.0001523,53.2161,66.8318,103.5829,256.5333,7.8956e-05,9.69e-06,0.0,0 STARLINK-3607,1 51809U 22017AT  24058.40548025  .00000969  00000-0  78956-4 0  9995,2 51809  53.2161  66.8318 0001523 103.5829 256.5333 15.08842668112159,6917.872,95.437,540.791,538.684,0.0
51809.0,STARLINK-3607,PAYLOAD,2024-02-27 17:40:49,15.08839551,0.0001568,53.2171,65.3484,88.488,271.6292,0.00011787,1.588e-05,0.0,0 STARLINK-3607,1 51809U 22017AT  24058.73668439  .00001588  00000-0  11787-3 0  9999,2 51809  53.2171  65.3484 0001568  88.4880 271.6292 15.08839551112200,6917.882,95.438,540.831,538.662,0.0
51809.0,STARLINK-3607,PAYLOAD,2024-02-28 09:34:40,15.08845928,0.0001465,53.2161,62.3742,93.0385,267.0775,0.00017739,2.537e-05,0.0,0 STARLINK-3607,1 51809U 22017AT  24059.39908267  .00002537  00000-0  17739-3 0  9996,2 51809  53.2161  62.3742 0001465  93.0385 267.0775 15.08845928112302,6917.862,95.437,540.741,538.714,0.0
51809.0,STARLINK-3607,PAYLOAD,2024-02-29 06:14:42,15.08837644,0.0001643,53.2172,58.5085,93.6324,266.4856,9.1531e-05,1.169e-05,0.0,0 STARLINK-3607,1 51809U 22017AT  24060.26020965  .00001169  00000-0  91531-4 0  9997,2 51809  53.2172  58.5085 0001643  93.6324 266.4856 15.08837644112431,6917.888,95.438,540.889,538.616,0.0
51809.0,STARLINK-3607,PAYLOAD,2024-02-29 17:22:23,15.08840625,0.0001663,53.2182,56.4252,96.734,263.3842,0.00013377,1.842e-05,0.0,0 STARLINK-3607,1 51809U 22017AT  24060.72388870  .00001842  00000-0  13377-3 0  9999,2 51809  53.2182  56.4252 0001663  96.7340 263.3842 15.08840625112501,6917.878,95.438,540.894,538.593,0.0
51809.0,STARLINK-3607,PAYLOAD,2024-03-01 09:16:14,15.08849723,0.0001633,53.2176,53.451,103.5915,256.5259,0.00022729,3.332e-05,0.0,0 STARLINK-3607,1 51809U 22017AT  24061.38628334  .00003332  00000-0  22729-3 0  9991,2 51809  53.2176  53.4510 0001633 103.5915 256.5259 15.08849723112605,6917.851,95.437,540.845,538.586,0.0
51809.0,STARLINK-3607,PAYLOAD,2024-03-02 02:45:29,15.0884082,0.0001792,53.2175,50.1767,114.2659,245.852,7.947e-06,-1.62e-06,0.0,0 STARLINK-3607,1 51809U 22017AT  24062.11492665 -.00000162  00000-0  79470-5 0  9995,2 51809  53.2175  50.1767 0001792 114.2659 245.8520 15.08840820112715,6917.878,95.438,540.983,538.503,0.0
51809.0,STARLINK-3607,PAYLOAD,2024-03-02 05:56:15,15.0883954,0.0001825,53.2182,49.5822,116.3782,243.7398,2.4838e-05,1.07e-06,0.0,0 STARLINK-3607,1 51809U 22017AT  24062.24740729  .00000107  00000-0  24838-4 0  9991,2 51809  53.2182  49.5822 0001825 116.3782 243.7398 15.08839540112733,6917.882,95.438,541.009,538.484,0.0
51809.0,STARLINK-3607,PAYLOAD,2024-03-03 05:47:03,15.08842227,0.0001458,53.2182,45.1281,89.5858,270.5302,6.7046e-05,7.79e-06,0.0,0 STARLINK-3607,1 51809U 22017AT  24063.24100822  .00000779  00000-0  67046-4 0  9999,2 51809  53.2182  45.1281 0001458  89.5858 270.5302 15.08842227112886,6917.874,95.437,540.747,538.73,0.0
51809.0,STARLINK-3607,PAYLOAD,2024-03-04 05:37:49,15.08843858,0.0001451,53.2184,40.6688,96.4184,263.6973,0.00018053,2.587e-05,0.0,0 STARLINK-3607,1 51809U 22017AT  24064.23460547  .00002587  00000-0  18053-3 0  9994,2 51809  53.2184  40.6688 0001451  96.4184 263.6973 15.08843858113037,6917.869,95.437,540.737,538.73,0.0
51809.0,STARLINK-3607,PAYLOAD,2024-03-04 15:10:08,15.08848414,0.0001435,53.2179,38.883,95.3966,264.719,0.00015798,2.228e-05,0.0,0 STARLINK-3607,1 51809U 22017AT  24064.63204071  .00002228  00000-0  15798-3 0  9991,2 51809  53.2179  38.8830 0001435  95.3966 264.7190 15.08848414113099,6917.855,95.437,540.712,538.727,0.0
51809.0,STARLINK-3607,PAYLOAD,2024-03-05 03:53:15,15.08816946,0.0001524,53.2185,36.502,89.9502,270.1665,-0.00035395,-5.913e-05,0.0,0 STARLINK-3607,1 51809U 22017AT  24065.16198094 -.00005913  00000-0 -35395-3 0  9998,2 51809  53.2185  36.5020 0001524  89.9502 270.1665 15.08816946113178,6917.951,95.439,540.87,538.762,0.0
51809.0,STARLINK-3607,PAYLOAD,2024-03-05 07:04:01,15.08816499,0.0001549,53.2187,35.9062,85.5603,274.5566,-0.00018638,-3.251e-05,0.0,0 STARLINK-3607,1 51809U 22017AT  24065.29446282 -.00003251  00000-0 -18638-3 0  9991,2 51809  53.2187  35.9062 0001549  85.5603 274.5566 15.08816499113193,6917.952,95.439,540.889,538.746,0.0
51809.0,STARLINK-3607,PAYLOAD,2024-03-05 15:00:56,15.08833295,0.0001337,53.2183,34.4199,95.5089,264.6056,-0.00014153,-2.539e-05,0.0,0 STARLINK-3607,1 51809U 22017AT  24065.62565611 -.00002539  00000-0 -14153-3 0  9992,2 51809  53.2183  34.4199 0001337  95.5089 264.6056 15.08833295113241,6917.901,95.438,540.691,538.841,0.0
51809.0,STARLINK-3607,PAYLOAD,2024-03-06 03:44:01,15.08846644,0.0001464,53.2182,32.0425,93.852,266.264,0.00017235,2.457e-05,0.0,0 STARLINK-3607,1 51809U 22017AT  24066.15557391  .00002457  00000-0  17235-3 0  9998,2 51809  53.2182  32.0425 0001464  93.8520 266.2640 15.08846644113326,6917.86,95.437,540.738,538.712,0.0
51809.0,STARLINK-3607,PAYLOAD,2024-03-06 05:19:24,15.08847833,0.0001495,53.218,31.7451,97.3053,262.8109,0.00038297,5.814e-05,0.0,0 STARLINK-3607,1 51809U 22017AT  24066.22181516  .00005814  00000-0  38297-3 0  9999,2 51809  53.2180  31.7451 0001495  97.3053 262.8109 15.08847833113337,6917.856,95.437,540.756,538.687,0.0
51809.0,STARLINK-3607,PAYLOAD,2024-03-07 03:34:48,15.08855981,0.000163,53.2186,27.5807,102.3952,257.7222,0.0004887,7.502e-05,0.0,0 STARLINK-3607,1 51809U 22017AT  24067.14917488  .00007502  00000-0  48870-3 0  9990,2 51809  53.2186  27.5807 0001630 102.3952 257.7222 15.08855981113474,6917.832,95.437,540.824,538.569,0.0
51809.0,STARLINK-3607,PAYLOAD,2024-03-08 03:25:35,15.08843547,0.0001574,53.2187,23.1201,96.188,263.9292,2.9718e-05,1.85e-06,0.0,0 STARLINK-3607,1 51809U 22017AT  24068.14277383  .00000185  00000-0  29718-4 0  9995,2 51809  53.2187  23.1201 0001574  96.1880 263.9292 15.08843547113620,6917.87,95.437,540.823,538.646,0.0
51809.0,STARLINK-3607,PAYLOAD,2024-03-08 06:36:21,15.08847524,0.000165,53.2193,22.5228,100.6074,259.5104,8.1644e-05,1.012e-05,0.0,0 STARLINK-3607,1 51809U 22017AT  24068.27525215  .00001012  00000-0  81644-4 0  9995,2 51809  53.2193  22.5228 0001650 100.6074 259.5104 15.08847524113644,6917.857,95.437,540.864,538.581,0.0
51809.0,STARLINK-3607,PAYLOAD,2024-03-09 06:27:09,15.08839256,0.0001577,53.2189,18.0637,105.764,254.3526,8.1762e-05,1.013e-05,0.0,0 STARLINK-3607,1 51809U 22017AT  24069.26885698  .00001013  00000-0  81762-4 0  9991,2 51809  53.2189  18.0637 0001577 105.7640 254.3526 15.08839256113796,6917.883,95.438,540.839,538.657,0.0
51809.0,STARLINK-3607,PAYLOAD,2024-03-10 12:39:27,15.08856182,0.0001485,53.2193,12.4171,87.8052,272.311,0.00025292,3.741e-05,0.0,0 STARLINK-3607,1 51809U 22017AT  24070.52740678  .00003741  00000-0  25292-3 0  9995,2 51809  53.2193  12.4171 0001485  87.8052 272.3110 15.08856182113984,6917.831,95.437,540.723,538.669,0.0
51809.0,STARLINK-3607,PAYLOAD,2024-03-10 20:36:24,15.08833345,0.0001514,53.2177,10.9304,89.1654,270.9512,-6.9632e-05,-1.396e-05,0.0,0 STARLINK-3607,1 51809U 22017AT  24070.85861773 -.00001396  00000-0 -69632-4 0  9994,2 51809  53.2177  10.9304 0001514  89.1654 270.9512 15.08833345114036,6917.901,95.438,540.813,538.718,0.0
